{
  "norad_id": 46709,
  "name": "STARLINK-1810",
  "history": [
    {
      "epoch": "2026-03-28T20:42:12.077856Z",
      "apogee_km": 418.0379332937291,
      "perigee_km": 414.8667625532662,
      "latitude_deg": -1.9861137226564783e-05,
      "longitude_deg": 3.342568254889955,
      "height_km": 415.91801095332295,
      "semi_major_axis_km": 6794.589347923497,
      "eccentricity": 0.00023336,
      "inclination_deg": 53.0467,
      "raan_deg": 140.1699,
      "arg_perigee_deg": 334.461,
      "mean_anomaly_deg": 25.6282,
      "mean_motion_rev_day": 15.50093664
    }
  ]
}